TIANMU-1 07             
1 57399U 23101A   26065.57454230  .00008352  00000+0  29795-3 0  9991
2 57399  97.2728 118.5929 0004609 142.4105 217.7458 15.29118809145964
STARLINK-35798          
1 66292U 25247AD  26068.59673868  .00024982  00000+0  85285-3 0  9994
2 66292  53.1600 191.5694 0000811  69.5956 290.5132 15.30196420 21014
